start=new Date('2021-12-08T00:00:00.000Z').valueOf();
sats=[{"EPHEMERIS_TYPE":"0","MEAN_MOTION_DDOT":"0.0000000000000","TLE_LINE2":"2 44752  53.0548 340.1589 0001889  47.5371 312.5777 15.06395619114331","APOAPSIS":"548.535","CENTER_NAME":"EARTH","FILE":"3234816","LAUNCH_DATE":"2019-11-11","DECAY_DATE":null,"RCS_SIZE":"LARGE","SITE":"AFETR","COUNTRY_CODE":"US","REF_FRAME":"TEME","MEAN_ELEMENT_THEORY":"SGP4","MEAN_ANOMALY":"312.5777","OBJECT_ID":"2019-074AR","OBJECT_NAME":"STARLINK-1047","EPOCH":"2021-12-07T06:36:03.894048","TIME_SYSTEM":"UTC","REV_AT_EPOCH":"11433","RA_OF_ASC_NODE":"340.1589","PERIAPSIS":"545.919","MEAN_MOTION_DOT":"0.00001171","PERIOD":"95.592","CLASSIFICATION_TYPE":"U","INCLINATION":"53.0548","MEAN_MOTION":"15.06395619","ARG_OF_PERICENTER":"47.5371","BSTAR":"0.00009748900000","OBJECT_TYPE":"PAYLOAD","GP_ID":"191269269","ELEMENT_SET_NO":"999","TLE_LINE1":"1 44752U 19074AR  21341.27504507  .00001171  00000-0  97489-4 0  9995","ECCENTRICITY":"0.00018890","SEMIMAJOR_AXIS":"6925.362","NORAD_CAT_ID":"44752"},{"EPHEMERIS_TYPE":"0","MEAN_MOTION_DDOT":"0.0000000000000","LAUNCH_DATE":"2019-11-11","CENTER_NAME":"EARTH","APOAPSIS":"548.487","TLE_LINE2":"2 44753  53.0533 317.4725 0001811  56.9970 303.1193 15.06393640114700","FILE":"3235143","COUNTRY_CODE":"US","MEAN_ELEMENT_THEORY":"SGP4","REF_FRAME":"TEME","RCS_SIZE":"LARGE","DECAY_DATE":null,"SITE":"AFETR","EPOCH":"2021-12-07T21:03:53.204832","RA_OF_ASC_NODE":"317.4725","TIME_SYSTEM":"UTC","REV_AT_EPOCH":"11470","OBJECT_ID":"2019-074AS","MEAN_ANOMALY":"303.1193","OBJECT_NAME":"STARLINK-1048","PERIOD":"95.593","CLASSIFICATION_TYPE":"U","MEAN_MOTION_DOT":"0.00001068","PERIAPSIS":"545.979","ARG_OF_PERICENTER":"56.9970","BSTAR":"0.00009062700000","INCLINATION":"53.0533","MEAN_MOTION":"15.06393640","OBJECT_TYPE":"PAYLOAD","SEMIMAJOR_AXIS":"6925.368","TLE_LINE1":"1 44753U 19074AS  21341.87769913  .00001068  00000-0  90627-4 0  9998","ECCENTRICITY":"0.00018110","NORAD_CAT_ID":"44753","ELEMENT_SET_NO":"999","GP_ID":"191296983"},{"REF_FRAME":"TEME","MEAN_ELEMENT_THEORY":"SGP4","COUNTRY_CODE":"US","SITE":"AFETR","DECAY_DATE":null,"RCS_SIZE":"LARGE","REV_AT_EPOCH":"11467","TIME_SYSTEM":"UTC","RA_OF_ASC_NODE":"318.3461","EPOCH":"2021-12-07T16:22:34.746240","OBJECT_NAME":"STARLINK-1049","MEAN_ANOMALY":"299.4954","OBJECT_ID":"2019-074AT","MEAN_MOTION_DDOT":"0.0000000000000","EPHEMERIS_TYPE":"0","LAUNCH_DATE":"2019-11-11","FILE":"3235143","APOAPSIS":"548.598","TLE_LINE2":"2 44754  53.0558 318.3461 0002012  60.6235 299.4954 15.06402851114678","CENTER_NAME":"EARTH","OBJECT_TYPE":"PAYLOAD","NORAD_CAT_ID":"44754","TLE_LINE1":"1 44754U 19074AT  21341.68234660  .00001852  00000-0  14319-3 0  9998","ECCENTRICITY":"0.00020120","SEMIMAJOR_AXIS":"6925.340","GP_ID":"191296733","ELEMENT_SET_NO":"999","MEAN_MOTION_DOT":"0.00001852","PERIOD":"95.592","CLASSIFICATION_TYPE":"U","PERIAPSIS":"545.811","BSTAR":"0.00014319000000","ARG_OF_PERICENTER":"60.6235","MEAN_MOTION":"15.06402851","INCLINATION":"53.0558"},{"OBJECT_TYPE":"PAYLOAD","GP_ID":"191297982","ELEMENT_SET_NO":"999","TLE_LINE1":"1 44755U 19074AU  21341.86569945  .00001273  00000-0  10436-3 0  9999","ECCENTRICITY":"0.00016470","SEMIMAJOR_AXIS":"6925.351","NORAD_CAT_ID":"44755","PERIAPSIS":"546.075","MEAN_MOTION_DOT":"0.00001273","CLASSIFICATION_TYPE":"U","PERIOD":"95.592","INCLINATION":"53.0519","MEAN_MOTION":"15.06399234","ARG_OF_PERICENTER":"56.3834","BSTAR":"0.00010436000000","DECAY_DATE":null,"RCS_SIZE":"LARGE","SITE":"AFETR","COUNTRY_CODE":"US","REF_FRAME":"TEME","MEAN_ELEMENT_THEORY":"SGP4","MEAN_ANOMALY":"303.7312","OBJECT_ID":"2019-074AU","OBJECT_NAME":"STARLINK-1050","EPOCH":"2021-12-07T20:46:36.432480","TIME_SYSTEM":"UTC","REV_AT_EPOCH":"11469","RA_OF_ASC_NODE":"357.5413","EPHEMERIS_TYPE":"0","MEAN_MOTION_DDOT":"0.0000000000000","TLE_LINE2":"2 44755  53.0519 357.5413 0001647  56.3834 303.7312 15.06399234114697","APOAPSIS":"548.357","CENTER_NAME":"EARTH","FILE":"3235143","LAUNCH_DATE":"2019-11-11"},{"LAUNCH_DATE":"2019-11-11","FILE":"3234816","TLE_LINE2":"2 44756  53.0480 230.2210 0000922 111.8360 248.2763 15.90988569115886","APOAPSIS":"300.133","CENTER_NAME":"EARTH","MEAN_MOTION_DDOT":"0.0000112450000","EPHEMERIS_TYPE":"0","TIME_SYSTEM":"UTC","REV_AT_EPOCH":"11588","RA_OF_ASC_NODE":"230.2210","EPOCH":"2021-12-07T10:17:19.901184","OBJECT_NAME":"STARLINK-1051","MEAN_ANOMALY":"248.2763","OBJECT_ID":"2019-074AV","REF_FRAME":"TEME","MEAN_ELEMENT_THEORY":"SGP4","COUNTRY_CODE":"US","SITE":"AFETR","RCS_SIZE":"LARGE","DECAY_DATE":null,"BSTAR":"0.00007181300000","ARG_OF_PERICENTER":"111.8360","MEAN_MOTION":"15.90988569","INCLINATION":"53.0480","MEAN_MOTION_DOT":"0.00019689","CLASSIFICATION_TYPE":"U","PERIOD":"90.510","PERIAPSIS":"298.902","NORAD_CAT_ID":"44756","ECCENTRICITY":"0.00009220","TLE_LINE1":"1 44756U 19074AV  21341.42870256  .00019689  11245-4  71813-4 0  9996","SEMIMAJOR_AXIS":"6677.652","GP_ID":"191269770","ELEMENT_SET_NO":"999","OBJECT_TYPE":"PAYLOAD"},{"OBJECT_TYPE":"PAYLOAD","NORAD_CAT_ID":"44757","SEMIMAJOR_AXIS":"6925.362","TLE_LINE1":"1 44757U 19074AW  21341.81688723 -.00000508  00000-0 -15162-4 0  9996","ECCENTRICITY":"0.00020670","ELEMENT_SET_NO":"999","GP_ID":"191296483","PERIOD":"95.592","CLASSIFICATION_TYPE":"U","MEAN_MOTION_DOT":"-0.00000508","PERIAPSIS":"545.796","BSTAR":"-0.00001516200000","ARG_OF_PERICENTER":"55.8469","MEAN_MOTION":"15.06395594","INCLINATION":"53.0562","MEAN_ELEMENT_THEORY":"SGP4","REF_FRAME":"TEME","COUNTRY_CODE":"US","SITE":"AFETR","RCS_SIZE":"LARGE","DECAY_DATE":null,"RA_OF_ASC_NODE":"337.7306","REV_AT_EPOCH":"11441","TIME_SYSTEM":"UTC","EPOCH":"2021-12-07T19:36:19.056672","OBJECT_NAME":"STARLINK-1052","OBJECT_ID":"2019-074AW","MEAN_ANOMALY":"304.2715","MEAN_MOTION_DDOT":"0.0000000000000","EPHEMERIS_TYPE":"0","LAUNCH_DATE":"2019-11-11","FILE":"3235143","CENTER_NAME":"EARTH","TLE_LINE2":"2 44757  53.0562 337.7306 0002067  55.8469 304.2715 15.06395594114411","APOAPSIS":"548.659"},{"MEAN_MOTION_DOT":"-0.00000471","PERIOD":"95.593","CLASSIFICATION_TYPE":"U","PERIAPSIS":"546.148","ARG_OF_PERICENTER":"61.3268","BSTAR":"-0.00001270700000","INCLINATION":"53.0570","MEAN_MOTION":"15.06392139","OBJECT_TYPE":"PAYLOAD","TLE_LINE1":"1 44758U 19074AX  21341.75881561 -.00000471  00000-0 -12707-4 0  9996","ECCENTRICITY":"0.00015740","SEMIMAJOR_AXIS":"6925.373","NORAD_CAT_ID":"44758","GP_ID":"191297234","ELEMENT_SET_NO":"999","EPHEMERIS_TYPE":"0","MEAN_MOTION_DDOT":"0.0000000000000","LAUNCH_DATE":"2019-11-11","APOAPSIS":"548.328","TLE_LINE2":"2 44758  53.0570 357.9887 0001574  61.3268 298.7879 15.06392139114139","CENTER_NAME":"EARTH","FILE":"3235143","COUNTRY_CODE":"US","REF_FRAME":"TEME","MEAN_ELEMENT_THEORY":"SGP4","DECAY_DATE":null,"RCS_SIZE":"LARGE","SITE":"AFETR","EPOCH":"2021-12-07T18:12:41.668704","TIME_SYSTEM":"UTC","REV_AT_EPOCH":"11413","RA_OF_ASC_NODE":"357.9887","MEAN_ANOMALY":"298.7879","OBJECT_ID":"2019-074AX","OBJECT_NAME":"STARLINK-1053"},{"PERIAPSIS":"546.058","MEAN_MOTION_DOT":"0.00001545","PERIOD":"95.593","CLASSIFICATION_TYPE":"U","INCLINATION":"53.0560","MEAN_MOTION":"15.06387249","ARG_OF_PERICENTER":"62.7169","BSTAR":"0.00012267000000","OBJECT_TYPE":"PAYLOAD","GP_ID":"191297482","ELEMENT_SET_NO":"999","TLE_LINE1":"1 44759U 19074AY  21341.74869665  .00001545  00000-0  12267-3 0  9998","ECCENTRICITY":"0.00017250","SEMIMAJOR_AXIS":"6925.388","NORAD_CAT_ID":"44759","EPHEMERIS_TYPE":"0","MEAN_MOTION_DDOT":"0.0000000000000","TLE_LINE2":"2 44759  53.0560 358.0534 0001725  62.7169 297.3996 15.06387249111771","APOAPSIS":"548.447","CENTER_NAME":"EARTH","FILE":"3235143","LAUNCH_DATE":"2019-11-11","RCS_SIZE":"LARGE","DECAY_DATE":null,"SITE":"AFETR","COUNTRY_CODE":"US","REF_FRAME":"TEME","MEAN_ELEMENT_THEORY":"SGP4","MEAN_ANOMALY":"297.3996","OBJECT_ID":"2019-074AY","OBJECT_NAME":"STARLINK-1054","EPOCH":"2021-12-07T17:58:07.390560","TIME_SYSTEM":"UTC","REV_AT_EPOCH":"11177","RA_OF_ASC_NODE":"358.0534"},{"FILE":"3234934","CENTER_NAME":"EARTH","TLE_LINE2":"2 44760  53.0540 359.2976 0001552  67.4484 292.6669 15.06405918114260","APOAPSIS":"548.270","LAUNCH_DATE":"2019-11-11","MEAN_MOTION_DDOT":"0.0000000000000","EPHEMERIS_TYPE":"0","OBJECT_NAME":"STARLINK-1055","OBJECT_ID":"2019-074AZ","MEAN_ANOMALY":"292.6669","RA_OF_ASC_NODE":"359.2976","REV_AT_EPOCH":"11426","TIME_SYSTEM":"UTC","EPOCH":"2021-12-07T11:14:43.558080","SITE":"AFETR","RCS_SIZE":"LARGE","DECAY_DATE":null,"MEAN_ELEMENT_THEORY":"SGP4","REF_FRAME":"TEME","COUNTRY_CODE":"US","MEAN_MOTION":"15.06405918","INCLINATION":"53.0540","BSTAR":"0.00015957000000","ARG_OF_PERICENTER":"67.4484","PERIAPSIS":"546.121","CLASSIFICATION_TYPE":"U","PERIOD":"95.592","MEAN_MOTION_DOT":"0.00002096","ELEMENT_SET_NO":"999","GP_ID":"191275274","NORAD_CAT_ID":"44760","SEMIMAJOR_AXIS":"6925.330","ECCENTRICITY":"0.00015520","TLE_LINE1":"1 44760U 19074AZ  21341.46855970  .00002096  00000-0  15957-3 0  9994","OBJECT_TYPE":"PAYLOAD"},{"PERIAPSIS":"546.258","MEAN_MOTION_DOT":"-0.00000207","CLASSIFICATION_TYPE":"U","PERIOD":"95.593","INCLINATION":"53.0552","MEAN_MOTION":"15.06391284","ARG_OF_PERICENTER":"59.9413","BSTAR":"0.00000499030000","OBJECT_TYPE":"PAYLOAD","GP_ID":"191296984","ELEMENT_SET_NO":"999","TLE_LINE1":"1 44761U 19074BA  21341.87770751 -.00000207  00000-0  49903-5 0  9996","ECCENTRICITY":"0.00014180","SEMIMAJOR_AXIS":"6925.375","NORAD_CAT_ID":"44761","EPHEMERIS_TYPE":"0","MEAN_MOTION_DDOT":"0.0000000000000","APOAPSIS":"548.222","TLE_LINE2":"2 44761  53.0552 357.4643 0001418  59.9413 300.1716 15.06391284114150","CENTER_NAME":"EARTH","FILE":"3235143","LAUNCH_DATE":"2019-11-11","RCS_SIZE":"LARGE","DECAY_DATE":null,"SITE":"AFETR","COUNTRY_CODE":"US","REF_FRAME":"TEME","MEAN_ELEMENT_THEORY":"SGP4","MEAN_ANOMALY":"300.1716","OBJECT_ID":"2019-074BA","OBJECT_NAME":"STARLINK-1056","EPOCH":"2021-12-07T21:03:53.928864","TIME_SYSTEM":"UTC","REV_AT_EPOCH":"11415","RA_OF_ASC_NODE":"357.4643"}];
